NORAD_CAT_ID,OBJECT_NAME,OBJECT_TYPE,EPOCH,MEAN_MOTION,ECCENTRICITY,INCLINATION,RA_OF_ASC_NODE,ARG_OF_PERICENTER,MEAN_ANOMALY,BSTAR,MEAN_MOTION_DOT,MEAN_MOTION_DDOT,TLE_LINE0,TLE_LINE1,TLE_LINE2,SEMIMAJOR_AXIS,PERIOD,APOGEE,PERIGEE,DECAYED
50198.0,STARLINK-3264,PAYLOAD,2023-05-14 07:31:33,15.08830286,0.0001327,53.2164,184.6639,109.6231,250.4904,1.9127e-05,1.6e-07,0.0,0 STARLINK-3264,1 50198U 21125AU  23134.31357787  .00000016  00000-0  19127-4 0  9999,2 50198  53.2164 184.6639 0001327 109.6231 250.4904 15.08830286 80708,6917.91,95.438,540.693,538.857,0.0
50198.0,STARLINK-3264,PAYLOAD,2023-05-14 12:17:42,15.08831867,0.0001286,53.2155,183.7733,112.5919,247.521,-2.6093e-05,-7.03e-06,0.0,0 STARLINK-3264,1 50198U 21125AU  23134.51229740 -.00000703  00000-0 -26093-4 0  9993,2 50198  53.2155 183.7733 0001286 112.5919 247.5210 15.08831867 81213,6917.905,95.438,540.66,538.881,0.0
50198.0,STARLINK-3264,PAYLOAD,2023-05-14 20:14:38,15.08836187,0.0001352,53.2162,182.2827,87.6815,272.4332,2.982e-05,1.87e-06,0.0,0 STARLINK-3264,1 50198U 21125AU  23134.84349740  .00000187  00000-0  29820-4 0  9997,2 50198  53.2162 182.2827 0001352  87.6815 272.4332 15.08836187 81267,6917.892,95.438,540.692,538.822,0.0
50198.0,STARLINK-3264,PAYLOAD,2023-05-15 02:36:10,15.08840112,0.000125,53.216,181.0911,89.8978,270.2158,0.00011105,1.48e-05,0.0,0 STARLINK-3264,1 50198U 21125AU  23135.10845576  .00001480  00000-0  11105-3 0  9998,2 50198  53.2160 181.0911 0001250  89.8978 270.2158 15.08840112 80823,6917.88,95.438,540.61,538.88,0.0
50198.0,STARLINK-3264,PAYLOAD,2023-05-15 10:33:06,15.08841848,0.0001243,53.2159,179.6042,89.3751,270.7384,0.0001142,1.53e-05,0.0,0 STARLINK-3264,1 50198U 21125AU  23135.43965504  .00001530  00000-0  11420-3 0  9994,2 50198  53.2159 179.6042 0001243  89.3751 270.7384 15.08841848 81357,6917.875,95.437,540.6,538.88,0.0
50198.0,STARLINK-3264,PAYLOAD,2023-05-15 20:05:25,15.08840807,0.0001237,53.216,177.82,88.2361,271.8773,0.00010658,1.409e-05,0.0,0 STARLINK-3264,1 50198U 21125AU  23135.83709583  .00001409  00000-0  10658-3 0  9998,2 50198  53.2160 177.8200 0001237  88.2361 271.8773 15.08840807 81418,6917.878,95.438,540.599,538.887,0.0
50198.0,STARLINK-3264,PAYLOAD,2023-05-16 07:13:07,15.0883742,0.0001216,53.2157,175.7381,90.0519,270.0612,0.00017438,2.488e-05,0.0,0 STARLINK-3264,1 50198U 21125AU  23136.30077909  .00002488  00000-0  17438-3 0  9992,2 50198  53.2157 175.7381 0001216  90.0519 270.0612 15.08837420 81009,6917.888,95.438,540.594,538.912,0.0
50198.0,STARLINK-3264,PAYLOAD,2023-05-16 08:48:30,15.08840449,0.0001211,53.215,175.4409,88.473,271.6401,0.00013509,1.863e-05,0.0,0 STARLINK-3264,1 50198U 21125AU  23136.36701765  .00001863  00000-0  13509-3 0  9993,2 50198  53.2150 175.4409 0001211  88.4730 271.6401 15.08840449 81492,6917.879,95.438,540.582,538.906,0.0
50198.0,STARLINK-3264,PAYLOAD,2023-05-16 19:56:12,15.08842369,0.0001215,53.2149,173.3592,88.0308,272.0823,0.00012191,1.653e-05,0.0,0 STARLINK-3264,1 50198U 21125AU  23136.83069655  .00001653  00000-0  12191-3 0  9993,2 50198  53.2149 173.3592 0001215  88.0308 272.0823 15.08842369 81565,6917.873,95.437,540.579,538.898,0.0
50198.0,STARLINK-3264,PAYLOAD,2023-05-17 08:39:17,15.08845593,0.0001196,53.2155,170.9796,90.9465,269.1664,8.5667e-05,1.076e-05,0.0,0 STARLINK-3264,1 50198U 21125AU  23137.36061352  .00001076  00000-0  85667-4 0  9996,2 50198  53.2155 170.9796 0001196  90.9465 269.1664 15.08845593 81163,6917.863,95.437,540.556,538.901,0.0
50198.0,STARLINK-3264,PAYLOAD,2023-05-17 19:46:58,15.08843434,0.0001181,53.2156,168.8982,90.1308,269.9819,6.7274e-05,7.83e-06,0.0,0 STARLINK-3264,1 50198U 21125AU  23137.82429391  .00000783  00000-0  67274-4 0  9996,2 50198  53.2156 168.8982 0001181  90.1308 269.9819 15.08843434 81712,6917.87,95.437,540.552,538.918,0.0
50198.0,STARLINK-3264,PAYLOAD,2023-05-18 08:30:04,15.08838689,0.0001191,53.2156,166.5193,89.7254,270.3875,3.5602e-05,2.79e-06,0.0,0 STARLINK-3264,1 50198U 21125AU  23138.35421671  .00000279  00000-0  35602-4 0  9998,2 50198  53.2156 166.5193 0001191  89.7254 270.3875 15.08838689 81316,6917.884,95.438,540.573,538.925,0.0
50198.0,STARLINK-3264,PAYLOAD,2023-05-18 13:16:13,15.08840846,0.000121,53.2156,165.6271,89.78,270.3331,4.7289e-05,4.65e-06,0.0,0 STARLINK-3264,1 50198U 21125AU  23138.55293487  .00000465  00000-0  47289-4 0  9993,2 50198  53.2156 165.6271 0001210  89.7800 270.3331 15.08840846 81823,6917.878,95.438,540.58,538.906,0.0
50198.0,STARLINK-3264,PAYLOAD,2023-05-19 17:53:10,15.08837906,0.0001238,53.216,160.2738,97.6157,262.4976,1.9951e-05,3e-07,0.0,0 STARLINK-3264,1 50198U 21125AU  23139.74525707  .00000030  00000-0  19951-4 0  9991,2 50198  53.2160 160.2738 0001238  97.6157 262.4976 15.08837906 81527,6917.887,95.438,540.608,538.895,0.0
50198.0,STARLINK-3264,PAYLOAD,2023-05-20 17:43:57,15.08841367,0.000119,53.2159,155.8136,91.9419,268.171,6.7956e-05,7.94e-06,0.0,0 STARLINK-3264,1 50198U 21125AU  23140.73885523  .00000794  00000-0  67956-4 0  9992,2 50198  53.2159 155.8136 0001190  91.9419 268.1710 15.08841367 82157,6917.876,95.437,540.564,538.918,0.0
50198.0,STARLINK-3264,PAYLOAD,2023-05-20 22:30:06,15.08841233,0.0001135,53.2155,154.9217,90.9874,269.1249,9.6761e-05,1.253e-05,0.0,0 STARLINK-3264,1 50198U 21125AU  23140.93757448  .00001253  00000-0  96761-4 0  9995,2 50198  53.2155 154.9217 0001135  90.9874 269.1249 15.08841233 81706,6917.877,95.437,540.527,538.956,0.0
50198.0,STARLINK-3264,PAYLOAD,2023-05-21 06:27:01,15.08844015,0.000114,53.2157,153.4348,90.269,269.8433,9.9982e-05,1.304e-05,0.0,0 STARLINK-3264,1 50198U 21125AU  23141.26877290  .00001304  00000-0  99982-4 0  9995,2 50198  53.2157 153.4348 0001140  90.2690 269.8433 15.08844015 82234,6917.868,95.437,540.522,538.944,0.0
50198.0,STARLINK-3264,PAYLOAD,2023-05-21 17:34:44,15.08838425,0.0001134,53.2156,151.3534,88.003,272.1092,5.1886e-05,5.38e-06,0.0,0 STARLINK-3264,1 50198U 21125AU  23141.73245788  .00000538  00000-0  51886-4 0  9997,2 50198  53.2156 151.3534 0001134  88.0030 272.1092 15.08838425 81823,6917.885,95.438,540.535,538.966,0.0
50198.0,STARLINK-3264,PAYLOAD,2023-05-22 09:28:36,15.08834498,0.0001164,53.2157,148.3802,89.1922,270.9203,1.9375e-05,2.1e-07,0.0,0 STARLINK-3264,1 50198U 21125AU  23142.39486372  .00000021  00000-0  19375-4 0  9990,2 50198  53.2157 148.3802 0001164  89.1922 270.9203 15.08834498 81920,6917.897,95.438,540.567,538.957,0.0
50198.0,STARLINK-3264,PAYLOAD,2023-05-22 17:25:31,15.08836626,0.0001149,53.2159,146.8935,92.6152,267.4971,2.6273e-05,1.3e-06,0.0,0 STARLINK-3264,1 50198U 21125AU  23142.72606292  .00000130  00000-0  26273-4 0  9998,2 50198  53.2159 146.8935 0001149  92.6152 267.4971 15.08836626 82456,6917.891,95.438,540.551,538.961,0.0
50198.0,STARLINK-3264,PAYLOAD,2023-05-23 09:19:22,15.08841565,0.0001173,53.2159,143.92,92.7609,267.3518,3.0231e-05,1.93e-06,0.0,0 STARLINK-3264,1 50198U 21125AU  23143.38846006  .00000193  00000-0  30231-4 0  9998,2 50198  53.2159 143.9200 0001173  92.7609 267.3518 15.08841565 82076,6917.876,95.437,540.552,538.929,0.0
50198.0,STARLINK-3264,PAYLOAD,2023-05-23 17:16:19,15.08835509,0.0001235,53.2164,142.4327,89.5901,270.5233,3.3072e-05,2.38e-06,0.0,0 STARLINK-3264,1 50198U 21125AU  23143.71966451  .00000238  00000-0  33072-4 0  9998,2 50198  53.2164 142.4327 0001235  89.5901 270.5233 15.08835509 82604,6917.894,95.438,540.613,538.905,0.0
50198.0,STARLINK-3264,PAYLOAD,2023-05-24 05:59:24,15.08835032,0.0001135,53.2157,140.0531,91.2719,268.8403,9.7244e-05,1.26e-05,0.0,0 STARLINK-3264,1 50198U 21125AU  23144.24958460  .00001260  00000-0  97244-4 0  9995,2 50198  53.2157 140.0531 0001135  91.2719 268.8403 15.08835032 82681,6917.896,95.438,540.546,538.975,0.0
50198.0,STARLINK-3264,PAYLOAD,2023-05-25 20:08:39,15.08838452,0.0001141,53.2151,132.9155,92.1636,267.9487,5.1685e-05,5.35e-06,0.0,0 STARLINK-3264,1 50198U 21125AU  23145.83934282  .00000535  00000-0  51685-4 0  9990,2 50198  53.2151 132.9155 0001141  92.1636 267.9487 15.08838452 82920,6917.885,95.438,540.539,538.961,0.0
50198.0,STARLINK-3264,PAYLOAD,2023-05-26 04:05:35,15.08837534,0.0001137,53.2152,131.4287,91.8457,268.2665,3.125e-05,2.1e-06,0.0,0 STARLINK-3264,1 50198U 21125AU  23146.17054403  .00000210  00000-0  31250-4 0  9992,2 50198  53.2152 131.4287 0001137  91.8457 268.2665 15.08837534 82497,6917.888,95.438,540.539,538.966,0.0
50198.0,STARLINK-3264,PAYLOAD,2023-05-26 08:51:44,15.08838581,0.0001159,53.2154,130.5368,91.9084,268.2041,2.0917e-05,4.5e-07,0.0,0 STARLINK-3264,1 50198U 21125AU  23146.36926371  .00000045  00000-0  20917-4 0  9999,2 50198  53.2154 130.5368 0001159  91.9084 268.2041 15.08838581 83009,6917.885,95.438,540.552,538.948,0.0
50198.0,STARLINK-3264,PAYLOAD,2023-05-27 05:31:45,15.08840337,0.0001141,53.2156,126.6704,91.2314,268.8808,-2.0065e-05,-6.07e-06,0.0,0 STARLINK-3264,1 50198U 21125AU  23147.23038390 -.00000607  00000-0 -20065-4 0  9991,2 50198  53.2156 126.6704 0001141  91.2314 268.8808 15.08840337 82650,6917.879,95.438,540.534,538.955,0.0
50198.0,STARLINK-3264,PAYLOAD,2023-05-27 15:04:04,15.08838784,0.0001152,53.216,124.8866,90.354,269.7584,-1.4204e-05,-5.14e-06,0.0,0 STARLINK-3264,1 50198U 21125AU  23147.62782494 -.00000514  00000-0 -14204-4 0  9990,2 50198  53.2160 124.8866 0001152  90.3540 269.7584 15.08838784 83191,6917.884,95.438,540.546,538.952,0.0
50198.0,STARLINK-3264,PAYLOAD,2023-05-28 05:22:32,15.08838658,0.0001135,53.2159,122.2113,94.3498,265.7624,5.7915e-05,6.34e-06,0.0,0 STARLINK-3264,1 50198U 21125AU  23148.22398409  .00000634  00000-0  57915-4 0  9993,2 50198  53.2159 122.2113 0001135  94.3498 265.7624 15.08838658 83284,6917.884,95.438,540.535,538.964,0.0
50198.0,STARLINK-3264,PAYLOAD,2023-05-28 21:16:24,15.08833533,0.0001125,53.2159,119.2381,95.5273,264.5847,3.2747e-05,2.33e-06,0.0,0 STARLINK-3264,1 50198U 21125AU  23148.88638991  .00000233  00000-0  32747-4 0  9999,2 50198  53.2159 119.2381 0001125  95.5273 264.5847 15.08833533 83382,6917.9,95.438,540.543,538.987,0.0
